     3.02           N: GNSS NAV DATA    C: BEIDOU           RINEX VERSION / TYPE
GR25 V3.11          IGN                 20160331 235943 UTC PGM / RUN BY / DATE
BDSA   2.1420D-08  2.4587D-07 -2.4438D-06  5.0068D-06       IONOSPHERIC CORR
BDSB   7.9872D+04  1.3107D+05  5.8982D+05 -7.8643D+05       IONOSPHERIC CORR
BDUT -7.4505805969D-09 2.042810365D-14 423654  534          TIME SYSTEM CORR
     3     3   495     2                                    LEAP SECONDS
                                                            END OF HEADER
C11 2016 03 31 07 00 00 2.869206946343D-04-5.030642569182D-12-7.860465750520D-19
     1.600000000000D+01-9.150000000000D+01 3.630508368103D-09 4.346270365321D-02
    -4.553236067295D-06 2.182606956922D-03 8.416827768087D-06 5.282616556168D+03
     3.708000000000D+05 7.450580596924D-09-2.021832268812D+00 2.002343535423D-08
     9.762549837501D-01 2.006875000000D+02-2.512695811752D+00-6.763138854737D-09
     5.643092200298D-11                    5.340000000000D+02                   
     2.000000000000D+00 0.000000000000D+00 8.300000000000D-09 2.800000000000D-09
     3.708000000000D+05 1.500000000000D+01                                      
C12 2016 03 31 23 00 00 4.675674717873D-04 1.632294299725D-11 2.168404344971D-19
     7.000000000000D+00-7.712500000000D+01 3.583006389455D-09 2.506587072544D+00
    -3.967899829149D-06 2.417998737656D-03 6.626360118389D-06 5.282606212616D+03
     4.284000000000D+05-4.610046744347D-08-2.031696599610D+00-1.862645149231D-09
     9.751552219177D-01 2.331875000000D+02-2.632149789181D+00-6.743138021622D-09
    -1.692927660089D-10                    5.340000000000D+02                   
     2.000000000000D+00 0.000000000000D+00 8.200000000000D-09 7.000000000000D-10
     4.284000000000D+05 6.000000000000D+00                                      
C14 2016 03 31 08 00 00 4.904676461592D-04 1.383524406151D-10 0.000000000000D+00
     1.400000000000D+01 4.703125000000D+00 4.251248510136D-09-1.573794198503D+00
     2.412125468254D-07 1.877332455479D-03 7.031485438347D-06 5.282602144241D+03
     3.744000000000D+05 9.778887033463D-09 5.925811981283D-02 2.048909664154D-08
     9.574968029909D-01 2.165000000000D+02-2.466012640239D+00-6.897787320529D-09
    -8.250343659930D-11                    5.340000000000D+02                   
     2.000000000000D+00 0.000000000000D+00 1.190000000000D-08 2.700000000000D-09
     3.746700000000D+05 0.000000000000D+00                                      
C33 2015 10 19 11 00 00 6.631808355451D-05 2.114486363780D-11 0.000000000000D+00
     9.000000000000D+00-1.020156250000D+02 3.705154334550D-09-1.835613361053D+00
    -5.033798515797D-06 4.280082648620D-04 7.896218448877D-06 5.282709987640D+03
     1.548000000000D+05 6.332993507385D-08 8.403878013194D-01-1.536682248116D-08
     9.605090083699D-01 1.989687500000D+02-2.209622129688D+00-6.817069672601D-09
     7.750322832055D-11                    5.110000000000D+02                   
     2.000000000000D+00 1.000000000000D+00 1.770000000000D-08 6.400000000000D-09
     1.557900000000D+05 3.000000000000D+00                                      
C12 2016 04 01 00 00 00 4.676262615249D-04 1.632383117567D-11 2.168404344971D-19
     8.000000000000D+00-7.150000000000D+01 3.612650481393D-09 2.994049526981D+00
    -3.593042492867D-06 2.416690811515D-03 6.125774234533D-06 5.282608819962D+03
     4.320000000000D+05-7.404014468193D-08-2.031721012787D+00-5.820766091347D-08
     9.751543704994D-01 2.410156250000D+02-2.632040917355D+00-6.794211577612D-09
    -1.525063525017D-10                    5.340000000000D+02                   
     2.000000000000D+00 0.000000000000D+00 8.200000000000D-09 7.000000000000D-10
     4.320000000000D+05 7.000000000000D+00                                      